[{"OBJECT_NAME":"STARLINK-5915","OBJECT_ID":"2023-042B","EPOCH":"2026-03-09T07:44:09.880512","MEAN_MOTION":15.02549692,"ECCENTRICITY":0.00014594,"INCLINATION":43.0048,"RA_OF_ASC_NODE":58.2302,"ARG_OF_PERICENTER":265.0638,"MEAN_ANOMALY":95.0038,"EPHEMERIS_TYPE":0,"CLASSIFICATION_TYPE":"U","NORAD_CAT_ID":55987,"ELEMENT_SET_NO":999,"REV_AT_EPOCH":16285,"BSTAR":3.4359642e-5,"MEAN_MOTION_DOT":2.61e-6,"MEAN_MOTION_DDOT":0},{"OBJECT_NAME":"DEORBITSAIL","OBJECT_ID":"2015-032E","EPOCH":"2026-03-09T13:39:47.460384","MEAN_MOTION":15.02284863,"ECCENTRICITY":0.0012066,"INCLINATION":97.5981,"RA_OF_ASC_NODE":287.3228,"ARG_OF_PERICENTER":211.0438,"MEAN_ANOMALY":149.0075,"EPHEMERIS_TYPE":0,"CLASSIFICATION_TYPE":"U","NORAD_CAT_ID":40719,"ELEMENT_SET_NO":999,"REV_AT_EPOCH":57628,"BSTAR":0.0007398,"MEAN_MOTION_DOT":9.73e-5,"MEAN_MOTION_DDOT":0}]
